CCSDS_OMM_VERS = 2.0
CREATION_DATE  = 
ORIGINATOR     = 

OBJECT_NAME    = STARLINK-36699
OBJECT_ID      = 2026-022E
CENTER_NAME    = EARTH
REF_FRAME      = TEME
TIME_SYSTEM    = UTC
MEAN_ELEMENT_THEORY = SGP/SGP4

EPOCH          = 2026-02-16T12:00:01.999296
MEAN_MOTION    = 15.75171283
ECCENTRICITY   = .0001109
INCLINATION    = 97.2841
RA_OF_ASC_NODE = 80.4293
ARG_OF_PERICENTER = 90.0553
MEAN_ANOMALY   = 248.9439

EPHEMERIS_TYPE = 0
CLASSIFICATION_TYPE = U
NORAD_CAT_ID   = 67652
ELEMENT_SET_NO = 999
REV_AT_EPOCH   = 348
BSTAR          = .49095E-3
MEAN_MOTION_DOT = .73671E-3
MEAN_MOTION_DDOT = 0

CCSDS_OMM_VERS = 2.0
CREATION_DATE  = 
ORIGINATOR     = 

OBJECT_NAME    = STARLINK-36694
OBJECT_ID      = 2026-022F
CENTER_NAME    = EARTH
REF_FRAME      = TEME
TIME_SYSTEM    = UTC
MEAN_ELEMENT_THEORY = SGP/SGP4

EPOCH          = 2026-02-16T12:00:01.999296
MEAN_MOTION    = 15.75130664
ECCENTRICITY   = .0001146
INCLINATION    = 97.2840
RA_OF_ASC_NODE = 80.4354
ARG_OF_PERICENTER = 83.5538
MEAN_ANOMALY   = 267.4548

EPHEMERIS_TYPE = 0
CLASSIFICATION_TYPE = U
NORAD_CAT_ID   = 67653
ELEMENT_SET_NO = 999
REV_AT_EPOCH   = 348
BSTAR          = .10329E-2
MEAN_MOTION_DOT = .156381E-2
MEAN_MOTION_DDOT = 0

CCSDS_OMM_VERS = 2.0
CREATION_DATE  = 
ORIGINATOR     = 

OBJECT_NAME    = STARLINK-36620
OBJECT_ID      = 2026-022G
CENTER_NAME    = EARTH
REF_FRAME      = TEME
TIME_SYSTEM    = UTC
MEAN_ELEMENT_THEORY = SGP/SGP4

EPOCH          = 2026-02-16T12:00:01.999296
MEAN_MOTION    = 15.75125157
ECCENTRICITY   = .0000903
INCLINATION    = 97.2841
RA_OF_ASC_NODE = 80.4346
ARG_OF_PERICENTER = 92.2159
MEAN_ANOMALY   = 260.7868

EPHEMERIS_TYPE = 0
CLASSIFICATION_TYPE = U
NORAD_CAT_ID   = 67654
ELEMENT_SET_NO = 999
REV_AT_EPOCH   = 348
BSTAR          = .10662E-2
MEAN_MOTION_DOT = .161495E-2
MEAN_MOTION_DDOT = 0

CCSDS_OMM_VERS = 2.0
CREATION_DATE  = 
ORIGINATOR     = 

OBJECT_NAME    = STARLINK-36720
OBJECT_ID      = 2026-022H
CENTER_NAME    = EARTH
REF_FRAME      = TEME
TIME_SYSTEM    = UTC
MEAN_ELEMENT_THEORY = SGP/SGP4

EPOCH          = 2026-02-16T12:00:01.999296
MEAN_MOTION    = 15.75152078
ECCENTRICITY   = .0001531
INCLINATION    = 97.2838
RA_OF_ASC_NODE = 80.4402
ARG_OF_PERICENTER = 91.9896
MEAN_ANOMALY   = 271.0146

EPHEMERIS_TYPE = 0
CLASSIFICATION_TYPE = U
NORAD_CAT_ID   = 67655
ELEMENT_SET_NO = 999
REV_AT_EPOCH   = 348
BSTAR          = .78634E-3
MEAN_MOTION_DOT = .118606E-2
MEAN_MOTION_DDOT = 0

CCSDS_OMM_VERS = 2.0
CREATION_DATE  = 
ORIGINATOR     = 

OBJECT_NAME    = STARLINK-36688
OBJECT_ID      = 2026-022J
CENTER_NAME    = EARTH
REF_FRAME      = TEME
TIME_SYSTEM    = UTC
MEAN_ELEMENT_THEORY = SGP/SGP4

EPOCH          = 2026-02-16T12:00:01.999296
MEAN_MOTION    = 15.75136251
ECCENTRICITY   = .0001245
INCLINATION    = 97.2839
RA_OF_ASC_NODE = 80.4409
ARG_OF_PERICENTER = 92.6930
MEAN_ANOMALY   = 274.3106

EPHEMERIS_TYPE = 0
CLASSIFICATION_TYPE = U
NORAD_CAT_ID   = 67656
ELEMENT_SET_NO = 999
REV_AT_EPOCH   = 348
BSTAR          = .98782E-3
MEAN_MOTION_DOT = .149467E-2
MEAN_MOTION_DDOT = 0

CCSDS_OMM_VERS = 2.0
CREATION_DATE  = 
ORIGINATOR     = 

OBJECT_NAME    = STARLINK-36706
OBJECT_ID      = 2026-022K
CENTER_NAME    = EARTH
REF_FRAME      = TEME
TIME_SYSTEM    = UTC
MEAN_ELEMENT_THEORY = SGP/SGP4

EPOCH          = 2026-02-16T12:00:01.999296
MEAN_MOTION    = 15.75200686
ECCENTRICITY   = .0001313
INCLINATION    = 97.2839
RA_OF_ASC_NODE = 80.4426
ARG_OF_PERICENTER = 84.0172
MEAN_ANOMALY   = 290.9739

EPHEMERIS_TYPE = 0
CLASSIFICATION_TYPE = U
NORAD_CAT_ID   = 67657
ELEMENT_SET_NO = 999
REV_AT_EPOCH   = 345
BSTAR          = -.28719E-3
MEAN_MOTION_DOT = -.42772E-3
MEAN_MOTION_DDOT = 0

CCSDS_OMM_VERS = 2.0
CREATION_DATE  = 
ORIGINATOR     = 

OBJECT_NAME    = STARLINK-36701
OBJECT_ID      = 2026-022L
CENTER_NAME    = EARTH
REF_FRAME      = TEME
TIME_SYSTEM    = UTC
MEAN_ELEMENT_THEORY = SGP/SGP4

EPOCH          = 2026-02-16T12:00:01.999296
MEAN_MOTION    = 15.75152660
ECCENTRICITY   = .000124
INCLINATION    = 97.2842
RA_OF_ASC_NODE = 80.4460
ARG_OF_PERICENTER = 89.5523
MEAN_ANOMALY   = 291.4459

EPHEMERIS_TYPE = 0
CLASSIFICATION_TYPE = U
NORAD_CAT_ID   = 67658
ELEMENT_SET_NO = 999
REV_AT_EPOCH   = 348
BSTAR          = .56053E-3
MEAN_MOTION_DOT = .84169E-3
MEAN_MOTION_DDOT = 0

CCSDS_OMM_VERS = 2.0
CREATION_DATE  = 
ORIGINATOR     = 

OBJECT_NAME    = STARLINK-36642
OBJECT_ID      = 2026-022M
CENTER_NAME    = EARTH
REF_FRAME      = TEME
TIME_SYSTEM    = UTC
MEAN_ELEMENT_THEORY = SGP/SGP4

EPOCH          = 2026-02-16T12:00:01.999296
MEAN_MOTION    = 15.75219703
ECCENTRICITY   = .0001057
INCLINATION    = 97.2833
RA_OF_ASC_NODE = 80.4490
ARG_OF_PERICENTER = 75.9905
MEAN_ANOMALY   = 310.9841

EPHEMERIS_TYPE = 0
CLASSIFICATION_TYPE = U
NORAD_CAT_ID   = 67659
ELEMENT_SET_NO = 999
REV_AT_EPOCH   = 348
BSTAR          = -.49318E-3
MEAN_MOTION_DOT = -.73156E-3
MEAN_MOTION_DDOT = 0

CCSDS_OMM_VERS = 2.0
CREATION_DATE  = 
ORIGINATOR     = 

OBJECT_NAME    = STARLINK-36673
OBJECT_ID      = 2026-022N
CENTER_NAME    = EARTH
REF_FRAME      = TEME
TIME_SYSTEM    = UTC
MEAN_ELEMENT_THEORY = SGP/SGP4

EPOCH          = 2026-02-16T12:00:01.999296
MEAN_MOTION    = 15.75181129
ECCENTRICITY   = .000122
INCLINATION    = 97.2834
RA_OF_ASC_NODE = 80.4512
ARG_OF_PERICENTER = 85.1124
MEAN_ANOMALY   = 309.8816

EPHEMERIS_TYPE = 0
CLASSIFICATION_TYPE = U
NORAD_CAT_ID   = 67660
ELEMENT_SET_NO = 999
REV_AT_EPOCH   = 348
BSTAR          = -.11603E-3
MEAN_MOTION_DOT = -.17394E-3
MEAN_MOTION_DDOT = 0

CCSDS_OMM_VERS = 2.0
CREATION_DATE  = 
ORIGINATOR     = 

OBJECT_NAME    = STARLINK-36674
OBJECT_ID      = 2026-022P
CENTER_NAME    = EARTH
REF_FRAME      = TEME
TIME_SYSTEM    = UTC
MEAN_ELEMENT_THEORY = SGP/SGP4

EPOCH          = 2026-02-16T12:00:01.999296
MEAN_MOTION    = 15.75200726
ECCENTRICITY   = .0001688
INCLINATION    = 97.2840
RA_OF_ASC_NODE = 80.4559
ARG_OF_PERICENTER = 96.4465
MEAN_ANOMALY   = 306.5454

EPHEMERIS_TYPE = 0
CLASSIFICATION_TYPE = U
NORAD_CAT_ID   = 67661
ELEMENT_SET_NO = 999
REV_AT_EPOCH   = 348
BSTAR          = -.22303E-3
MEAN_MOTION_DOT = -.33283E-3
MEAN_MOTION_DDOT = 0

CCSDS_OMM_VERS = 2.0
CREATION_DATE  = 
ORIGINATOR     = 

OBJECT_NAME    = STARLINK-36700
OBJECT_ID      = 2026-022Q
CENTER_NAME    = EARTH
REF_FRAME      = TEME
TIME_SYSTEM    = UTC
MEAN_ELEMENT_THEORY = SGP/SGP4

EPOCH          = 2026-02-16T12:00:01.999296
MEAN_MOTION    = 15.75113179
ECCENTRICITY   = .000136
INCLINATION    = 97.2834
RA_OF_ASC_NODE = 80.4599
ARG_OF_PERICENTER = 92.2083
MEAN_ANOMALY   = 322.8040

EPHEMERIS_TYPE = 0
CLASSIFICATION_TYPE = U
NORAD_CAT_ID   = 67662
ELEMENT_SET_NO = 999
REV_AT_EPOCH   = 348
BSTAR          = .93907E-3
MEAN_MOTION_DOT = .141816E-2
MEAN_MOTION_DDOT = 0

CCSDS_OMM_VERS = 2.0
CREATION_DATE  = 
ORIGINATOR     = 

OBJECT_NAME    = STARLINK-36675
OBJECT_ID      = 2026-022R
CENTER_NAME    = EARTH
REF_FRAME      = TEME
TIME_SYSTEM    = UTC
MEAN_ELEMENT_THEORY = SGP/SGP4

EPOCH          = 2026-02-16T12:00:01.999296
MEAN_MOTION    = 15.75119841
ECCENTRICITY   = .0001378
INCLINATION    = 97.2834
RA_OF_ASC_NODE = 80.4570
ARG_OF_PERICENTER = 92.3778
MEAN_ANOMALY   = 314.6230

EPHEMERIS_TYPE = 0
CLASSIFICATION_TYPE = U
NORAD_CAT_ID   = 67663
ELEMENT_SET_NO = 999
REV_AT_EPOCH   = 348
BSTAR          = .10018E-2
MEAN_MOTION_DOT = .15152E-2
MEAN_MOTION_DDOT = 0

