STARLINK-36699          
1 67652U 26022E   26047.50002314  .00073671  00000+0  49095-3 0  9995
2 67652  97.2841  80.4293 0001109  90.0553 248.9439 15.75171283  3482
STARLINK-36694          
1 67653U 26022F   26047.50002314  .00156381  00000+0  10329-2 0  9993
2 67653  97.2840  80.4354 0001146  83.5538 267.4548 15.75130664  3486
STARLINK-36620          
1 67654U 26022G   26047.50002314  .00161495  00000+0  10662-2 0  9996
2 67654  97.2841  80.4346 0000903  92.2159 260.7868 15.75125157  3487
STARLINK-36720          
1 67655U 26022H   26047.50002314  .00118606  00000+0  78634-3 0  9997
2 67655  97.2838  80.4402 0001531  91.9896 271.0146 15.75152078  3485
STARLINK-36688          
1 67656U 26022J   26047.50002314  .00149467  00000+0  98782-3 0  9993
2 67656  97.2839  80.4409 0001245  92.6930 274.3106 15.75136251  3480
STARLINK-36706          
1 67657U 26022K   26047.50002314 -.00042772  00000+0 -28719-3 0  9990
2 67657  97.2839  80.4426 0001313  84.0172 290.9739 15.75200686  3456
STARLINK-36701          
1 67658U 26022L   26047.50002314  .00084169  00000+0  56053-3 0  9997
2 67658  97.2842  80.4460 0001240  89.5523 291.4459 15.75152660  3484
STARLINK-36642          
1 67659U 26022M   26047.50002314 -.00073156  00000+0 -49318-3 0  9990
2 67659  97.2833  80.4490 0001057  75.9905 310.9841 15.75219703  3481
STARLINK-36673          
1 67660U 26022N   26047.50002314 -.00017394  00000+0 -11603-3 0  9990
2 67660  97.2834  80.4512 0001220  85.1124 309.8816 15.75181129  3486
STARLINK-36674          
1 67661U 26022P   26047.50002314 -.00033283  00000+0 -22303-3 0  9995
2 67661  97.2840  80.4559 0001688  96.4465 306.5454 15.75200726  3483
STARLINK-36700          
1 67662U 26022Q   26047.50002314  .00141816  00000+0  93907-3 0  9994
2 67662  97.2834  80.4599 0001360  92.2083 322.8040 15.75113179  3485
STARLINK-36675          
1 67663U 26022R   26047.50002314  .00151520  00000+0  10018-2 0  9999
2 67663  97.2834  80.4570 0001378  92.3778 314.6230 15.75119841  3488
